[{"OBJECT_NAME":"STARLINK-35714","OBJECT_ID":"2025-244J","EPOCH":"2026-03-09T21:08:25.424448","MEAN_MOTION":15.30210555,"ECCENTRICITY":9.954e-5,"INCLINATION":53.157,"RA_OF_ASC_NODE":229.3918,"ARG_OF_PERICENTER":53.1303,"MEAN_ANOMALY":306.9788,"EPHEMERIS_TYPE":0,"CLASSIFICATION_TYPE":"U","NORAD_CAT_ID":66214,"ELEMENT_SET_NO":999,"REV_AT_EPOCH":2168,"BSTAR":0.0011441748,"MEAN_MOTION_DOT":0.00033693,"MEAN_MOTION_DDOT":0},{"OBJECT_NAME":"CZ-6A R\/B","OBJECT_ID":"2023-168B","EPOCH":"2026-03-09T21:13:08.722272","MEAN_MOTION":15.16100791,"ECCENTRICITY":0.00607667,"INCLINATION":97.7542,"RA_OF_ASC_NODE":104.7688,"ARG_OF_PERICENTER":339.2379,"MEAN_ANOMALY":20.6386,"EPHEMERIS_TYPE":0,"CLASSIFICATION_TYPE":"U","NORAD_CAT_ID":58200,"ELEMENT_SET_NO":999,"REV_AT_EPOCH":12979,"BSTAR":0.00029693841,"MEAN_MOTION_DOT":5.919e-5,"MEAN_MOTION_DDOT":0}]
